LINGQIAO VIDEO A        
1 40959U 15057B   26133.54871473  .00000550  00000+0  84090-4 0  9993
2 40959  97.6621 130.0625 0017601  26.9390 333.2731 14.77342845570291
LINGQIAO VIDEO B        
1 40960U 15057C   26133.52786922  .00000123  00000+0  23994-4 0  9999
2 40960  97.6589 131.2155 0017776  27.0106 333.2026 14.77446315570336
JILIN-1                 
1 40961U 15057D   26133.48908122  .00000522  00000+0  78733-4 0  9997
2 40961  97.6511 134.5810 0017530  21.7228 338.4723 14.78100347570480
FOX-1A (AO-85)          
1 40967U 15058D   26133.13585852  .00002000  00000+0  18869-3 0  9993
2 40967  64.7769  27.8942 0128985  70.3373 291.1605 14.90756995108340
SINOD-D 1               
1 40968U 15058E   26133.04384483  .00002830  00000+0  23539-3 0  9992
2 40968  64.7766   8.9440 0117476  67.1657 294.1813 14.95623695111403
ELEKTRO-L 2             
1 41105U 15074A   26133.17521958 -.00000102  00000+0  00000+0 0  9993
2 41105   6.6060  70.9443 0001473 270.6274 297.9409  1.00272808 38156
DAMPE                   
1 41173U 15078A   26133.45685598  .00001118  00000+0  40263-4 0  9991
2 41173  97.4570 138.7557 0011342 191.1215 168.9776 15.30696159579232
ORBCOMM FM114           
1 41179U 15081A   26133.46061410  .00000169  00000+0  72112-4 0  9996
2 41179  47.0031 166.1822 0001719  11.5714 348.5211 14.58817864552684
ORBCOMM FM110           
1 41182U 15081D   26133.38083906  .00000227  00000+0  84306-4 0  9998
2 41182  47.0002 166.0096 0004063 273.5276  86.5145 14.58822097552540
ORBCOMM FM112           
1 41184U 15081F   26133.28315597  .00000319  00000+0  10388-3 0  9993
2 41184  46.9986  75.2876 0002344  36.3027 323.8018 14.58756421553855
ORBCOMM FM113           
1 41185U 15081G   26133.19053021  .00000206  00000+0  79933-4 0  9992
2 41185  47.0007  76.0880 0001350  15.2023 344.8903 14.58817974553828
ORBCOMM FM108           
1 41187U 15081J   26133.29009124  .00000384  00000+0  11751-3 0  9990
2 41187  47.0062 347.1829 0002245  29.8474 330.2539 14.58819887554988
ORBCOMM FM117           
1 41188U 15081K   26133.32402664  .00000364  00000+0  11340-3 0  9993
2 41188  47.0026 345.6670 0002667  38.2663 321.8412 14.58817759555037
ORBCOMM FM116           
1 41189U 15081L   26133.16775868  .00000199  00000+0  78390-4 0  9990
2 41189  47.0023  76.1932 0002401 276.3059  83.7553 14.58826183553828
HORYU-4                 
1 41340U 16012D   26133.24679484  .00121737  00000+0  67326-3 0  9998
2 41340  30.9892 331.6842 0005472  27.9931 332.1020 15.78097367565269
ZIYUAN 3-02 (ZY 3-02)   
1 41556U 16033A   26133.52742459  .00003222  00000+0  14616-3 0  9996
2 41556  97.3842 209.9643 0013720  60.9794 299.2814 15.21451889552716
CARTOSAT-2C             
1 41599U 16040A   26133.48199280  .00002586  00000+0  12604-3 0  9991
2 41599  97.4511 193.9317 0008260 252.6736 107.3595 15.19204857548444
LAPAN-A3                
1 41603U 16040E   26133.46507294  .00002225  00000+0  72274-4 0  9993
2 41603  97.1488 130.7596 0011731 133.0160 227.2068 15.32880236549497
GAOFEN-3                
1 41727U 16049A   26133.53365878  .00000164  00000+0  62902-4 0  9994
2 41727  98.4026 141.8422 0000980  76.0339 284.0960 14.42211331513650
CAS-2T & KS-1Q          
1 41847U 16066G   26133.46988979  .00000526  00000+0  83846-4 0  9993
2 41847  98.3825 209.5991 0341087 234.7873 122.0946 14.44591476499789
YUNHAI-1 01             
1 41857U 16068A   26133.45680354  .00000242  00000+0  10516-3 0  9999
2 41857  98.5850 144.7862 0006257 127.5873 232.5880 14.32714134496857
RESOURCESAT-2A          
1 41877U 16074A   26133.51302525  .00000171  00000+0  98288-4 0  9990
2 41877  98.7532 207.2988 0002537 151.1800 208.9517 14.21605788489377
TANSAT                  
1 41898U 16081A   26133.43203725  .00000399  00000+0  93539-4 0  9990
2 41898  98.5371 132.6643 0021767  58.3383 301.9935 14.59920772499551
JILIN-1 03              
1 41914U 17002B   26133.48294823  .00008121  00000+0  20076-3 0  9993
2 41914  97.1957 141.0792 0003840 310.4600  49.6312 15.40718331516518
CARTOSAT-2D             
1 41948U 17008A   26133.51456360  .00003066  00000+0  14878-3 0  9992
2 41948  97.4132 193.4621 0004743  16.7614 343.3777 15.19222247512314
CARTOSAT-2E             
1 42767U 17036C   26133.59780700  .00001385  00000+0  69046-4 0  9999
2 42767  97.4298 193.9648 0004352  74.9285 285.2430 15.19198399492897
