OBJECT_NAME,OBJECT_ID,EPOCH,MEAN_MOTION,ECCENTRICITY,INCLINATION,RA_OF_ASC_NODE,ARG_OF_PERICENTER,MEAN_ANOMALY,EPHEMERIS_TYPE,CLASSIFICATION_TYPE,NORAD_CAT_ID,ELEMENT_SET_NO,REV_AT_EPOCH,BSTAR,MEAN_MOTION_DOT,MEAN_MOTION_DDOT
LINGQIAO VIDEO A,2015-057B,2026-05-13T13:10:08.952672,14.77342845,.0017601,97.6621,130.0625,26.9390,333.2731,0,U,40959,999,57029,.8409E-4,.55E-5,0
LINGQIAO VIDEO B,2015-057C,2026-05-13T12:40:07.900608,14.77446315,.0017776,97.6589,131.2155,27.0106,333.2026,0,U,40960,999,57033,.23994E-4,.123E-5,0
JILIN-1,2015-057D,2026-05-13T11:44:16.617408,14.78100347,.001753,97.6511,134.5810,21.7228,338.4723,0,U,40961,999,57048,.78733E-4,.522E-5,0
FOX-1A (AO-85),2015-058D,2026-05-13T03:15:38.176128,14.90756995,.01289858,64.7769,27.8942,70.3373,291.1605,0,U,40967,999,10834,.18869103E-3,.2E-4,0
SINOD-D 1,2015-058E,2026-05-13T01:03:08.193312,14.95623695,.0117476,64.7766,8.9440,67.1657,294.1813,0,U,40968,999,11140,.23539E-3,.283E-4,0
ELEKTRO-L 2,2015-074A,2026-05-13T04:12:18.971712,1.00272808,.00014735,6.6060,70.9443,270.6274,297.9409,0,U,41105,999,3815,0,-.102E-5,0
DAMPE,2015-078A,2026-05-13T10:57:52.356672,15.30696159,.0011342,97.4570,138.7557,191.1215,168.9776,0,U,41173,999,57923,.40263E-4,.1118E-4,0
ORBCOMM FM114,2015-081A,2026-05-13T11:03:17.058240,14.58817864,.0001719,47.0031,166.1822,11.5714,348.5211,0,U,41179,999,55268,.72112E-4,.169E-5,0
ORBCOMM FM110,2015-081D,2026-05-13T09:08:24.494784,14.58822097,.0004063,47.0002,166.0096,273.5276,86.5145,0,U,41182,999,55254,.84306E-4,.227E-5,0
ORBCOMM FM112,2015-081F,2026-05-13T06:47:44.675808,14.58756421,.0002344,46.9986,75.2876,36.3027,323.8018,0,U,41184,999,55385,.10388E-3,.319E-5,0
ORBCOMM FM113,2015-081G,2026-05-13T04:34:21.810144,14.58817974,.00013505,47.0007,76.0880,15.2023,344.8903,0,U,41185,999,55382,.7993273E-4,.206E-5,0
ORBCOMM FM108,2015-081J,2026-05-13T06:57:43.883136,14.58819887,.0002245,47.0062,347.1829,29.8474,330.2539,0,U,41187,999,55498,.11751E-3,.384E-5,0
ORBCOMM FM117,2015-081K,2026-05-13T07:46:35.901696,14.58817759,.0002667,47.0026,345.6670,38.2663,321.8412,0,U,41188,999,55503,.1134E-3,.364E-5,0
ORBCOMM FM116,2015-081L,2026-05-13T04:01:34.349952,14.58826183,.00024017,47.0023,76.1932,276.3059,83.7553,0,U,41189,999,55382,.78390099E-4,.199E-5,0
HORYU-4,2016-012D,2026-05-13T05:55:23.074176,15.78097367,.0005472,30.9892,331.6842,27.9931,332.1020,0,U,41340,999,56526,.67326E-3,.121737E-2,0
ZIYUAN 3-02 (ZY 3-02),2016-033A,2026-05-13T12:39:29.484576,15.21451889,.001372,97.3842,209.9643,60.9794,299.2814,0,U,41556,999,55271,.14616E-3,.3222E-4,0
CARTOSAT-2C,2016-040A,2026-05-13T11:34:04.177920,15.19204857,.000826,97.4511,193.9317,252.6736,107.3595,0,U,41599,999,54844,.12604E-3,.2586E-4,0
LAPAN-A3,2016-040E,2026-05-13T11:09:42.302016,15.32880236,.0011731,97.1488,130.7596,133.0160,227.2068,0,U,41603,999,54949,.72274E-4,.2225E-4,0
GAOFEN-3,2016-049A,2026-05-13T12:48:28.118592,14.42211331,.000098,98.4026,141.8422,76.0339,284.0960,0,U,41727,999,51365,.62902E-4,.164E-5,0
CAS-2T & KS-1Q,2016-066G,2026-05-13T11:16:38.477856,14.44591476,.0341087,98.3825,209.5991,234.7873,122.0946,0,U,41847,999,49978,.83846E-4,.526E-5,0
YUNHAI-1 01,2016-068A,2026-05-13T10:57:47.825856,14.32714134,.0006257,98.5850,144.7862,127.5873,232.5880,0,U,41857,999,49685,.10516E-3,.242E-5,0
RESOURCESAT-2A,2016-074A,2026-05-13T12:18:45.381600,14.21605788,.0002537,98.7532,207.2988,151.1800,208.9517,0,U,41877,999,48937,.98288E-4,.171E-5,0
TANSAT,2016-081A,2026-05-13T10:22:08.018400,14.59920772,.0021767,98.5371,132.6643,58.3383,301.9935,0,U,41898,999,49955,.93539E-4,.399E-5,0
JILIN-1 03,2017-002B,2026-05-13T11:35:26.727072,15.40718331,.000384,97.1957,141.0792,310.4600,49.6312,0,U,41914,999,51651,.20076E-3,.8121E-4,0
CARTOSAT-2D,2017-008A,2026-05-13T12:20:58.295040,15.19222247,.0004743,97.4132,193.4621,16.7614,343.3777,0,U,41948,999,51231,.14878E-3,.3066E-4,0
CARTOSAT-2E,2017-036C,2026-05-13T14:20:50.524800,15.19198399,.0004352,97.4298,193.9648,74.9285,285.2430,0,U,42767,999,49289,.69046E-4,.1385E-4,0
